ONEWEB-0128             
1 47274U 20100S   25251.18217283  .00000252  00000+0  66547-3 0  9993
2 47274  87.8886  46.7370 0001447  92.2524 267.8771 13.12444067227751
ONEWEB-0129             
1 47275U 20100T   25251.16108061 -.00000406  00000+0 -11638-2 0  9998
2 47275  87.8893  46.6854 0001774 134.2695 225.8580 13.12443380227686
ONEWEB-0130             
1 47276U 20100U   25251.18866214  .00000435  00000+0  11725-2 0  9999
2 47276  87.8889  46.6773 0001574  94.6894 265.4414 13.12444148227656
ONEWEB-0131             
1 47277U 20100V   25251.18542814  .00000368  00000+0  98774-3 0  9992
2 47277  87.8892  46.7075 0001624  93.1957 266.9358 13.12443694227699
ONEWEB-0132             
1 47278U 20100W   25251.13837755 -.00000067  00000+0 -22207-3 0  9995
2 47278  87.8891  46.7188 0001780  87.1488 272.9844 13.12442193227587
ONEWEB-0133             
1 47279U 20100X   25251.15444369 -.00000419  00000+0 -12010-2 0  9994
2 47279  87.8879  46.6859 0001574  90.3384 269.7925 13.12444091227741
ONEWEB-0134             
1 47280U 20100Y   25251.20001943  .00000432  00000+0  11667-2 0  9999
2 47280  87.8892  46.6632 0001421  95.9586 264.1704 13.12442522227722
ONEWEB-0135             
1 47281U 20100Z   25251.17081492 -.00000094  00000+0 -29693-3 0  9998
2 47281  87.8893  46.7095 0001242  91.1118 269.0153 13.12443260227742
